P/2012 K3 (Gibbs),e,13.1883,125.8201,172.2405,3.628684,0.1425872,0.42244365,182.3968,02/16.0/2023,2000,g 15.0,4.0
# From MPC 88326
P/2012 NJ (La Sagra),e,84.5557,315.5996,338.3865,8.466226,0.0400101,0.84671974,155.9440,02/16.0/2023,2000,g 14.5,4.0
# From MPC 81470
P/2012 O1 (McNaught),e,7.4268,91.9251,238.3354,3.541778,0.1478673,0.59422932,213.8204,02/16.0/2023,2000,g 17.5,4.0
# From MPC 80899
P/2012 O2 (McNaught),e,24.4667,120.6828,183.4774,3.626401,0.1427218,0.53193135,197.2840,02/16.0/2023,2000,g 17.0,4.0
# From MPC 82320
P/2012 T2 (PANSTARRS),e,12.5683,73.7166,310.8068,5.727318,0.0719080,0.16239200,257.1726,02/16.0/2023,2000,g 10.0,4.0
# From MPC 80900
P/2012 T3 (PANSTARRS),e,9.5573,114.3644,195.5438,6.151405,0.0646015,0.61661267,254.3950,02/16.0/2023,2000,g 15.0,4.0
# From MPC 82720
P/2012 U2 (PANSTARRS),e,10.7597,185.3260,228.2643,7.131343,0.0517544,0.50007674,193.7487,02/16.0/2023,2000,g 12.5,4.0
# From MPC 84024
P/2012 US27 (Siding Spring),e,39.3696,49.2080,0.8322,5.164366,0.0839805,0.64829459,308.5005,02/16.0/2023,2000,g 13.5,4.0
# From MPC 82721
P/2012 WA34 (Lemmon-PANSTARRS),e,6.0821,93.5555,356.6134,4.680095,0.0973469,0.34374253,346.1063,02/16.0/2023,2000,g 13.5,4.0
# From MPC 82721
P/2013 AL76 (Catalina),e,144.8745,146.0184,27.0402,6.500063,0.0594741,0.68590320,221.7946,02/16.0/2023,2000,g 16.0,4.0
# From MPEC 2022-K19
P/2013 EW90,e,31.7918,160.2888,346.0279,4.112113,0.1181970,0.19469717,86.5240,02/16.0/2023,2000,g 14.3,4.0
# From MPC 91612
P/2013 G1 (Kowalski),e,5.4577,221.3060,51.5475,6.898155,0.0544007,0.51105576,182.6075,02/16.0/2023,2000,g 11.0,4.0
# From MPC 84025
P/2013 G4 (PANSTARRS),e,5.9160,339.6322,214.6186,4.437948,0.1054219,0.40916197,25.4864,02/16.0/2023,2000,g 15.0,4.0
# From MPC 91613
P/2013 J2 (McNaught),e,15.5088,289.3365,37.8819,6.223302,0.0634852,0.65726153,219.3725,02/16.0/2023,2000,g 13.0,4.0
# From MPC 86229
P/2013 N3 (PANSTARRS),e,2.1735,17.4769,323.9768,7.395848,0.0490029,0.59292903,160.9534,02/16.0/2023,2000,g 13.0,4.0
# From MPC 85834
P/2013 N5 (PANSTARRS),e,23.4617,187.1552,176.9487,6.797018,0.0556194,0.73250114,195.2064,02/16.0/2023,2000,g 17.0,4.0
# From MPC 85834
P/2013 P1 (PANSTARRS),e,18.7221,160.6036,138.2544,8.583175,0.0391951,0.60441938,142.6914,02/16.0/2023,2000,g 12.0,4.0
# From MPEC 2022-V95
P/2013 R3 (Catalina-PANSTARRS),e,0.8650,341.9741,11.3010,3.031839,0.1867002,0.27562447,285.6204,02/16.0/2023,2000,g 14.0,4.0
# From unp
P/2013 R3-A (Catalina-PANSTARRS),e,0.8642,341.9290,11.3800,3.031593,0.1867230,0.27555514,285.6809,02/16.0/2023,2000,g  9.0,4.0
# From MPEC 2015-M77
P/2013 R3-B (Catalina-PANSTARRS),e,0.8654,341.9849,11.3147,3.031813,0.1867026,0.27560044,285.6150,02/16.0/2023,2000,g  9.0,4.0
# From MPC 85835
P/2013 T1 (PANSTARRS),e,24.3029,10.0803,346.1739,5.856556,0.0695409,0.62427793,241.8874,02/16.0/2023,2000,g 16.5,4.0
# From MPC 86643
P/2013 T2 (Schwartz),e,9.4569,0.8017,345.5866,3.491970,0.1510422,0.50101902,177.1754,02/16.0/2023,2000,g 16.0,4.0
# From MPC 91613
P/2013 W1 (PANSTARRS),e,4.6968,117.8392,1.2249,3.487307,0.1513453,0.59295326,134.5084,02/16.0/2023,2000,g 17.5,4.0
# From MPC101095
P/2013 YG46 (Spacewatch),e,7.8576,48.8364,242.6046,3.273682,0.1663985,0.45461425,6.7727,02/16.0/2023,2000,g 10.0,4.0
# From MPC 89728
P/2014 A2 (Hill),e,24.5479,106.6340,356.1454,5.927036,0.0683042,0.64576354,233.3368,02/16.0/2023,2000,g 15.0,4.0
# From MPC 92981
P/2014 A3 (PANSTARRS),e,13.7172,229.9777,214.1454,4.607745,0.0996487,0.24653249,353.4802,02/16.0/2023,2000,g 12.0,4.0
# From MPC102095
P/2014 C1 (TOTAS),e,2.6933,167.8199,23.9550,3.031601,0.1867222,0.45139004,261.6090,02/16.0/2023,2000,g 15.5,4.0
# From MPEC 2022-WD2
C/2014 F3 (Sheppard-Trujillo),e,6.5363,326.3209,4.5811,14.55538,0.0177488,0.60771813,11.1427,02/16.0/2023,2000,g  6.0,4.0
# From MPC 98560
P/2014 L2 (NEOWISE),e,5.1983,149.3458,182.7226,6.305599,0.0622464,0.64782400,194.8926,02/16.0/2023,2000,g 12.0,4.0
# From MPC 90769
P/2014 L3 (Hill),e,6.2662,115.4962,178.7084,8.178758,0.0421379,0.77257040,132.8610,02/16.0/2023,2000,g 16.0,4.0
# From MPC 91614
P/2014 M4 (PANSTARRS),e,3.3439,263.1802,148.0513,5.867973,0.0693381,0.59569831,205.9424,02/16.0/2023,2000,g 15.0,4.0
# From MPEC 2022-K19
P/2014 MG4 (Spacewatch-PANSTARRS),e,9.3663,311.7243,299.0273,5.013518,0.0877991,0.25887647,310.0013,02/16.0/2023,2000,g  9.5,4.0
# From MPC 98560
P/2014 O3 (PANSTARRS),e,7.7952,87.6389,204.7916,7.577559,0.0472509,0.38426438,152.4554,02/16.0/2023,2000,g 10.5,4.0
# From MPEC 2023-A50
C/2014 OG392 (PANSTARRS),e,9.0330,145.8048,254.4233,12.25523,0.0229732,0.18640543,9.9573,02/16.0/2023,2000,g  6.0,4.0
# From MPC 91616
P/2014 U4 (PANSTARRS),e,6.4290,11.8857,347.8452,3.509100,0.1499376,0.46481358,109.8062,02/16.0/2023,2000,g 18.0,4.0
# From MPEC 2023-C45
C/2014 UN271 (Bernardinelli-Bernstein),h,01/21.7022/2031,95.4298,189.8971,326.2271,1.001223,10.947379,2000,2.5,3.2
# From MPC 95211
P/2014 V1 (PANSTARRS),e,22.5241,166.1985,177.6611,5.479446,0.0768421,0.53439301,226.0046,02/16.0/2023,2000,g 14.0,4.0
# From MPC 93586
P/2014 W1 (PANSTARRS),e,8.8358,246.2250,152.1220,4.467886,0.1043640,0.38948572,328.0497,02/16.0/2023,2000,g 15.5,4.0
# From MPC105542
P/2014 W4 (PANSTARRS),e,15.2835,33.3896,67.5883,6.587712,0.0582911,0.35349341,151.7854,02/16.0/2023,2000,g 11.0,4.0
# From MPC 94281
P/2014 X1 (Elenin),e,26.0504,61.5687,33.8649,6.204412,0.0637754,0.70969466,189.2635,02/16.0/2023,2000,g 15.0,4.0
# From MPC 92275
P/2015 A3 (PANSTARRS),e,172.5421,277.3372,249.4778,7.815777,0.0451072,0.85032803,131.7367,02/16.0/2023,2000,g 20.0,4.0
# From MPC 99270
P/2015 B1 (PANSTARRS),e,18.0555,352.9151,188.8610,9.489482,0.0337163,0.36643110,91.6111,02/16.0/2023,2000,g  8.5,4.0
# From MPC109141
P/2015 B4 (Lemmon-PANSTARRS),e,1.7638,266.0691,227.2345,8.515658,0.0396622,0.56069512,116.4248,02/16.0/2023,2000,g 11.0,4.0
# From MPC101096
P/2015 C1 (TOTAS-Gibbs),e,13.9212,348.7910,178.0923,6.573713,0.0584774,0.56115444,167.0459,02/16.0/2023,2000,g 12.5,4.0
# From MPC109141
P/2015 D5 (Kowalski),e,20.5364,74.0742,39.6478,8.952706,0.0367936,0.49008669,119.3027,02/16.0/2023,2000,g  9.0,4.0
# From MPC 96866
P/2015 D6 (Lemmon-PANSTARRS),e,20.2076,45.8464,124.9979,7.135057,0.0517140,0.36141727,144.3926,02/16.0/2023,2000,g 10.5,4.0
# From MPEC 2021-P47
P/2015 HG16 (PANSTARRS),e,18.8803,57.3394,47.4234,4.786346,0.0941235,0.35200132,302.5182,02/16.0/2023,2000,g 12.5,4.0
# From MPC 95213
P/2015 K5 (PANSTARRS),e,39.9425,134.2220,106.3076,6.726657,0.0564944,0.55179564,159.2008,02/16.0/2023,2000,g 13.5,4.0
# From MPC107684
P/2015 M2 (PANSTARRS),e,3.9692,86.5825,226.0167,7.244426,0.0505473,0.17962777,137.1263,02/16.0/2023,2000,g  8.5,4.0
# From MPEC 2021-P47
C/2015 O1 (PANSTARRS),h,02/20.2081/2018,127.1681,299.8228,89.5203,1.001365,3.719871,2000,6.5,4.0
# From MPC 99819
P/2015 P4 (PANSTARRS),e,8.7179,104.6712,280.6861,6.046675,0.0662871,0.58575637,171.0184,02/16.0/2023,2000,g 14.0,4.0
# From MPEC 2022-K19
P/2015 PD229 (Cameron-ISON),e,2.0247,342.6635,352.7064,7.193976,0.0510800,0.32741663,139.9215,02/16.0/2023,2000,g 11.5,2.0
# From MPC 96867
P/2015 Q2 (Pimentel),e,146.5519,228.5400,244.6544,7.353461,0.0494272,0.75071014,134.3560,02/16.0/2023,2000,g 15.5,4.0
# From MPC 98562
P/2015 R1 (PANSTARRS),e,22.6995,48.3217,300.5904,5.880706,0.0691130,0.63422658,192.6026,02/16.0/2023,2000,g 14.0,4.0
# From MPC 95734
P/2015 R2 (PANSTARRS),e,15.4845,168.5956,149.8602,4.485161,0.1037617,0.45271792,290.6349,02/16.0/2023,2000,g 14.5,4.0
# From MPC 96280
P/2015 T3 (PANSTARRS),e,13.0937,120.5019,178.6330,4.326181,0.1095335,0.50818108,359.9227,12/21.0/2014,2000,g 14.0,4.0
# From MPC102953
P/2015 TO19 (Lemmon-PANSTARRS),e,6.5012,321.6243,89.2006,4.551524,0.1015006,0.35942536,257.3722,02/16.0/2023,2000,g 14.0,4.0
# From MPC110080
P/2015 TP200 (LINEAR),e,8.7803,7.0163,82.4385,7.264237,0.0503407,0.53634582,115.8280,02/16.0/2023,2000,g 11.0,4.0
# From MPC101098
P/2015 W2 (Catalina),e,11.6107,294.1349,117.5714,7.290706,0.0500668,0.63534396,134.7440,02/16.0/2023,2000,g 13.0,4.0
# From MPEC 2022-OB6
C/2015 XY1 (Lemmon),e,148.8517,281.5666,196.1376,17291,0.0000004,0.99954160,0.0000,04/25.3835/2018,2000,g  5.5,4.0
# From MPEC 2022-OB6
P/2015 X3 (PANSTARRS),e,24.4056,77.2681,306.7737,5.002912,0.0880785,0.44008617,241.6469,02/16.0/2023,2000,g 15.0,4.0
# From MPC115881
P/2015 X6 (PANSTARRS),e,4.5650,106.9315,329.7849,2.752181,0.2158682,0.17322899,183.8624,02/16.0/2023,2000,g 16.0,4.0
# From MPC100282
P/2016 A2 (Christensen),e,26.4040,291.6181,141.2856,4.753585,0.0950982,0.27094720,266.7905,02/16.0/2023,2000,g 11.5,4.0
# From MPEC 2022-OB6
P/2016 A3 (PANSTARRS),e,8.5112,187.2186,340.9031,7.878878,0.0445664,0.38604198,94.5819,02/16.0/2023,2000,g 10.0,4.0
# From MPC102098
P/2016 A7 (PANSTARRS),e,16.6034,221.4973,352.5156,5.035321,0.0872295,0.56449427,222.8122,02/16.0/2023,2000,g 16.0,4.0
# From MPC109143
P/2016 BA14 (PANSTARRS),e,18.8968,180.5134,351.9712,3.026809,0.1871659,0.66439611,113.9888,02/16.0/2023,2000,g 21.0,4.0
# From MPEC 2021-P47
P/2016 G1 (PANSTARRS),e,10.9711,204.0173,111.1504,2.582922,0.2374309,0.21066087,165.3165,02/16.0/2023,2000,g 14.0,4.0
# From MPEC 2017-D91
P/2016 J1-A (PANSTARRS),e,14.3294,199.8080,47.1039,3.173025,0.1743789,0.22770982,62.7639,02/16.0/2023,2000,g 16.5,4.0
# From MPEC 2017-A77
P/2016 J1-B (PANSTARRS),e,14.3321,199.8128,46.9954,3.172661,0.1744089,0.22756043,62.9123,02/16.0/2023,2000,g 17.0,4.0
# From MPEC 2022-ED3
C/2016 M1 (PANSTARRS),e,90.8620,92.2639,209.9348,45831,0.0000001,0.99995169,0.0000,08/10.4852/2018,2000,g  5.0,4.0
# From MPEC 2021-P47
C/2016 N6 (PANSTARRS),e,105.8628,298.9075,162.5808,964.4906,0.0000329,0.99724222,0.0000,07/17.4286/2018,2000,g  7.0,4.0
# From MPC102099
P/2016 P1 (PANSTARRS),e,24.4043,319.5032,270.5575,3.200261,0.1721576,0.28930832,105.8006,02/16.0/2023,2000,g 15.0,4.0
# From MPEC 2023-CD7
C/2016 Q2 (PANSTARRS),h,05/12.3851/2021,109.3808,322.3117,84.5573,1.002985,7.081867,2000,6.0,4.0
# From MPEC 2021-N06
C/2016 R2 (PANSTARRS),e,58.3355,80.5112,33.0927,478.3961,0.0000942,0.99457328,0.0000,05/09.2800/2018,2000,g  7.0,4.0
